     2.10           NAVIGATION DATA                         RINEX VERSION / TYPE
SPIDER V4,0,0,3554                      2015 03 15 01:13    PGM / RUN BY / DATE 
   2.0489D-08  0.0000D+00 -1.1921D-07  5.9605D-08           ION ALPHA           
   1.2288D+05 -1.6384D+04 -2.6214D+05  6.5536D+04           ION BETA            
    2.793967723846D-09 1.332267629550D-14   503808     1834 DELTA-UTC: A0,A1,T,W
    16                                                      LEAP SECONDS        
                                                            END OF HEADER       
14 15 03 04 06 00  0.0 8.215382695198D-05-3.524291969370D-12 0.000000000000D+00
    5.100000000000D+01-3.078125000000D+01 4.600548830780D-09-2.663835399574D+00
   -1.532956957817D-06 7.766763214022D-03 4.444271326065D-06 5.153784950256D+03
    2.808000000000D+05 5.029141902924D-08 1.740487643988D+00-7.264316082001D-08
    9.669340845944D-01 2.974375000000D+02-1.974768103692D+00-8.046764143899D-09
   -1.528635135140D-10 1.000000000000D+00 1.834000000000D+03 0.000000000000D+00
    2.000000000000D+00 0.000000000000D+00-9.313225746155D-09 5.100000000000D+01
    2.808000000000D+05 0.000000000000D+00
19 15 03 04 06 00  0.0-5.026711151004D-04-1.364242052659D-12 0.000000000000D+00
    8.600000000000D+01-4.818750000000D+01 4.733054392858D-09 2.999076065225D+00
   -2.577900886536D-06 1.102249266114D-02 3.028661012650D-06 5.153699163437D+03
    2.808000000000D+05-1.285225152969D-07-1.383285871569D+00-1.415610313416D-07
    9.682880138138D-01 3.261562500000D+02 5.202657722777D-01-8.173912213749D-09
   -2.042942204294D-10 1.000000000000D+00 1.834000000000D+03 0.000000000000D+00
    2.000000000000D+00 0.000000000000D+00-1.490116119385D-08 8.600000000000D+01
    2.808000000000D+05 0.000000000000D+00
22 15 03 04 06 00  0.0 3.246478736401D-04 4.320099833421D-12 0.000000000000D+00
    3.300000000000D+01 5.090625000000D+01 5.282720039190D-09-1.463058416999D+00
    2.570450305939D-06 7.553076487966D-03 8.545815944672D-06 5.153700027466D+03
    2.808000000000D+05 1.862645149231D-07 6.005123924030D-01 8.195638656616D-08
    9.232871205574D-01 1.949375000000D+02-2.065221490090D+00-8.377491589329D-09
    3.403713144667D-10 1.000000000000D+00 1.834000000000D+03 0.000000000000D+00
    2.000000000000D+00 0.000000000000D+00-1.769512891769D-08 3.300000000000D+01
    2.808000000000D+05 0.000000000000D+00
27 15 03 04 06 00  0.0 5.545187741518D-05 2.614797267597D-12 0.000000000000D+00
    2.400000000000D+01-2.843750000000D+01 4.850559065517D-09-2.387074878290D+00
   -1.540407538414D-06 2.089764340781D-03 2.689659595490D-06 5.153684194565D+03
    2.808000000000D+05-3.911554813385D-08-1.480498948907D+00-9.685754776001D-08
    9.660517401840D-01 3.315312500000D+02 1.328049350129D-01-8.417136321270D-09
   -1.153619491601D-10 1.000000000000D+00 1.834000000000D+03 0.000000000000D+00
    2.000000000000D+00 0.000000000000D+00 1.862645149231D-09 2.400000000000D+01
    2.808000000000D+05 0.000000000000D+00
32 15 03 04 06 00  0.0-2.098572440445D-04 9.208633855451D-12 0.000000000000D+00
    9.300000000000D+01 6.028125000000D+01 4.818415000329D-09 1.540147338690D+00
    3.159046173096D-06 1.132145256270D-02 8.149072527885D-06 5.153570184708D+03
    2.808000000000D+05-6.519258022308D-08 6.993614949163D-01 1.825392246246D-07
    9.472826753143D-01 2.146250000000D+02 2.571246467308D-02-8.193913103582D-09
    2.557249412227D-10 1.000000000000D+00 1.834000000000D+03 0.000000000000D+00
    2.800000000000D+00 0.000000000000D+00-3.725290298462D-09 9.300000000000D+01
    2.808000000000D+05 0.000000000000D+00
